NORAD_CAT_ID,OBJECT_NAME,OBJECT_TYPE,EPOCH,MEAN_MOTION,ECCENTRICITY,INCLINATION,RA_OF_ASC_NODE,ARG_OF_PERICENTER,MEAN_ANOMALY,BSTAR,MEAN_MOTION_DOT,MEAN_MOTION_DDOT,TLE_LINE0,TLE_LINE1,TLE_LINE2,SEMIMAJOR_AXIS,PERIOD,APOGEE,PERIGEE,DECAYED
55398.0,STARLINK-5275,PAYLOAD,2024-04-10 03:53:24,14.98327759,0.0002798,70.002,25.6591,273.2016,86.8823,1.7304e-05,1.14e-06,0.0,0 STARLINK-5275,1 55398U 23014H   24101.16208548  .00000114  00000-0  17304-4 0  9997,2 55398  70.0020  25.6591 0002798 273.2016  86.8823 14.98327759 66480,6950.2,96.107,574.009,570.12,0.0
55398.0,STARLINK-5275,PAYLOAD,2024-04-10 11:54:04,14.98329667,0.0002799,70.0012,24.8175,269.6221,90.4617,-4.856e-05,-6.72e-06,0.0,0 STARLINK-5275,1 55398U 23014H   24101.49588554 -.00000672  00000-0 -48560-4 0  9990,2 55398  70.0012  24.8175 0002799 269.6221  90.4617 14.98329667 67470,6950.194,96.107,574.004,570.114,0.0
55398.0,STARLINK-5275,PAYLOAD,2024-04-10 23:07:01,14.98328364,0.0002803,70.0012,23.64,265.3047,94.7792,-8.8882e-05,-1.153e-05,0.0,0 STARLINK-5275,1 55398U 23014H   24101.96320760 -.00001153  00000-0 -88882-4 0  9991,2 55398  70.0012  23.6400 0002803 265.3047  94.7792 14.98328364 67545,6950.198,96.107,574.011,570.115,0.0
55398.0,STARLINK-5275,PAYLOAD,2024-04-11 03:55:25,14.98329831,0.0002763,70.0011,23.135,265.5472,94.5371,-5.5687e-05,-7.57e-06,0.0,0 STARLINK-5275,1 55398U 23014H   24102.16348581 -.00000757  00000-0 -55687-4 0  9991,2 55398  70.0011  23.1350 0002763 265.5472  94.5371 14.98329831 66632,6950.193,96.107,573.979,570.138,0.0
55398.0,STARLINK-5275,PAYLOAD,2024-04-11 11:56:05,14.98331545,0.000281,70.0009,22.2928,269.1144,90.9694,-5.5471e-05,-7.55e-06,0.0,0 STARLINK-5275,1 55398U 23014H   24102.49728485 -.00000755  00000-0 -55471-4 0  9991,2 55398  70.0009  22.2928 0002810 269.1144  90.9694 14.98331545 67622,6950.188,96.107,574.006,570.1,0.0
55398.0,STARLINK-5275,PAYLOAD,2024-04-11 21:32:53,14.98328759,0.0002783,70.0008,21.2829,269.4193,90.6647,2.3467e-05,1.87e-06,0.0,0 STARLINK-5275,1 55398U 23014H   24102.89784484  .00000187  00000-0  23467-4 0  9993,2 55398  70.0008  21.2829 0002783 269.4193  90.6647 14.98328759 67680,6950.197,96.107,573.996,570.127,0.0
55398.0,STARLINK-5275,PAYLOAD,2024-04-12 03:57:25,14.98330786,0.0002769,70.0007,20.6092,269.9747,90.1094,4.2682e-05,4.16e-06,0.0,0 STARLINK-5275,1 55398U 23014H   24103.16488315  .00000416  00000-0  42682-4 0  9993,2 55398  70.0007  20.6092 0002769 269.9747  90.1094 14.98330786 66782,6950.19,96.107,573.98,570.131,0.0
55398.0,STARLINK-5275,PAYLOAD,2024-04-13 03:59:26,14.98319389,0.0002845,70.0004,18.0835,273.4053,86.678,-0.00014832,-1.862e-05,0.0,0 STARLINK-5275,1 55398U 23014H   24104.16627774 -.00001862  00000-0 -14832-3 0  9991,2 55398  70.0004  18.0835 0002845 273.4053  86.6780 14.98319389 66935,6950.226,96.108,574.068,570.113,0.0
55398.0,STARLINK-5275,PAYLOAD,2024-04-13 21:36:56,14.98310972,0.0002808,70.0006,16.2312,274.077,86.0068,-0.0002555,-3.139e-05,0.0,0 STARLINK-5275,1 55398U 23014H   24104.90065039 -.00003139  00000-0 -25550-3 0  9991,2 55398  70.0006  16.2312 0002808 274.0770  86.0068 14.98310972 67987,6950.252,96.108,574.068,570.165,0.0
55398.0,STARLINK-5275,PAYLOAD,2024-04-14 04:01:28,14.98315321,0.0002641,70.0011,15.5595,267.7978,92.2878,-0.00022136,-2.732e-05,0.0,0 STARLINK-5275,1 55398U 23014H   24105.16768873 -.00002732  00000-0 -22136-3 0  9991,2 55398  70.0011  15.5595 0002641 267.7978  92.2878 14.98315321 67084,6950.238,96.108,573.939,570.268,0.0
55398.0,STARLINK-5275,PAYLOAD,2024-04-14 20:02:47,14.98312922,0.0003049,70.0002,13.8761,268.6026,91.4784,0.00021879,2.517e-05,0.0,0 STARLINK-5275,1 55398U 23014H   24105.83527228  .00002517  00000-0  21879-3 0  9994,2 55398  70.0002  13.8761 0003049 268.6026  91.4784 14.98312922 67189,6950.246,96.108,574.23,569.992,0.0
55398.0,STARLINK-5275,PAYLOAD,2024-04-14 21:38:55,14.98313662,0.0003034,70.0003,13.7075,269.4293,90.6518,0.000222,2.556e-05,0.0,0 STARLINK-5275,1 55398U 23014H   24105.90203264  .00002556  00000-0  22200-3 0  9995,2 55398  70.0003  13.7075 0003034 269.4293  90.6518 14.98313662 68130,6950.243,96.108,574.217,570.0,0.0
55398.0,STARLINK-5275,PAYLOAD,2024-04-15 04:03:27,14.98324094,0.0002817,70.0007,13.035,266.8165,93.2672,0.00031114,3.621e-05,0.0,0 STARLINK-5275,1 55398U 23014H   24106.16906594  .00003621  00000-0  31114-3 0  9998,2 55398  70.0007  13.0350 0002817 266.8165  93.2672 14.98324094 67231,6950.211,96.107,574.034,570.118,0.0
55398.0,STARLINK-5275,PAYLOAD,2024-04-15 16:52:32,14.98319864,0.0002166,70.0026,11.6901,246.6553,113.4378,0.0002403,2.775e-05,0.0,0 STARLINK-5275,1 55398U 23014H   24106.70315469  .00002775  00000-0  24030-3 0  9991,2 55398  70.0026  11.6901 0002166 246.6553 113.4378 14.98319864 67318,6950.224,96.108,573.595,570.584,0.0
55398.0,STARLINK-5275,PAYLOAD,2024-04-15 21:40:57,14.98315936,0.000217,70.0025,11.184,246.7387,113.3543,0.00024325,2.81e-05,0.0,0 STARLINK-5275,1 55398U 23014H   24106.90343843  .00002810  00000-0  24325-3 0  9997,2 55398  70.0025  11.1840 0002170 246.7387 113.3543 14.98315936 68281,6950.236,96.108,573.61,570.593,0.0
55398.0,STARLINK-5275,PAYLOAD,2024-04-16 10:30:01,14.98326926,0.0002136,70.0031,9.8355,271.5519,88.5396,0.00018305,2.092e-05,0.0,0 STARLINK-5275,1 55398U 23014H   24107.43751722  .00002092  00000-0  18305-3 0  9998,2 55398  70.0031   9.8355 0002136 271.5519  88.5396 14.98326926 68367,6950.202,96.107,573.552,570.583,0.0
55398.0,STARLINK-5275,PAYLOAD,2024-04-16 20:06:49,14.98339403,0.0002724,70.001,8.8275,261.0625,99.0225,2.1158e-05,1.6e-06,0.0,0 STARLINK-5275,1 55398U 23014H   24107.83807022  .00000160  00000-0  21158-4 0  9992,2 55398  70.0010   8.8275 0002724 261.0625  99.0225 14.98339403 67483,6950.164,96.106,573.922,570.136,0.0
55398.0,STARLINK-5275,PAYLOAD,2024-04-16 21:42:57,14.98339697,0.0002725,70.0009,8.6592,261.2663,98.8187,2.4209e-05,1.96e-06,0.0,0 STARLINK-5275,1 55398U 23014H   24107.90482955  .00000196  00000-0  24209-4 0  9993,2 55398  70.0009   8.6592 0002725 261.2663  98.8187 14.98339697 68431,6950.163,96.106,573.922,570.134,0.0
55398.0,STARLINK-5275,PAYLOAD,2024-04-17 02:31:20,14.98347631,0.0002622,70.0011,8.1544,261.2493,98.8369,0.0001267,1.42e-05,0.0,0 STARLINK-5275,1 55398U 23014H   24108.10509999  .00001420  00000-0  12670-3 0  9993,2 55398  70.0011   8.1544 0002622 261.2493  98.8369 14.98347631 67521,6950.138,96.106,573.826,570.181,0.0
55398.0,STARLINK-5275,PAYLOAD,2024-04-17 20:08:51,14.98317167,0.0002805,70.0009,6.3035,258.6623,101.4221,-0.00015402,-1.93e-05,0.0,0 STARLINK-5275,1 55398U 23014H   24108.83948744 -.00001930  00000-0 -15402-3 0  9992,2 55398  70.0009   6.3035 0002805 258.6623 101.4221 14.98317167 67632,6950.233,96.108,574.047,570.148,0.0
55398.0,STARLINK-5275,PAYLOAD,2024-04-17 21:44:59,14.98316122,0.0002835,70.0011,6.1355,258.6726,101.4115,-0.0001674,-2.089e-05,0.0,0 STARLINK-5275,1 55398U 23014H   24108.90624881 -.00002089  00000-0 -16740-3 0  9995,2 55398  70.0011   6.1355 0002835 258.6726 101.4115 14.98316122 68582,6950.236,96.108,574.071,570.13,0.0
55398.0,STARLINK-5275,PAYLOAD,2024-04-18 02:33:24,14.98314137,0.0003005,70.0003,5.6287,265.2041,94.8775,-0.00020218,-2.504e-05,0.0,0 STARLINK-5275,1 55398U 23014H   24109.10653307 -.00002504  00000-0 -20218-3 0  9990,2 55398  70.0003   5.6287 0003005 265.2041  94.8775 14.98314137 68610,6950.242,96.108,574.195,570.018,0.0
55398.0,STARLINK-5275,PAYLOAD,2024-04-18 20:10:52,14.98325749,0.0003176,69.9999,3.7753,278.174,81.9059,-5.0597e-05,-6.97e-06,0.0,0 STARLINK-5275,1 55398U 23014H   24109.84088415 -.00000697  00000-0 -50597-4 0  9998,2 55398  69.9999   3.7753 0003176 278.1740  81.9059 14.98325749 67786,6950.206,96.107,574.278,569.864,0.0
55398.0,STARLINK-5275,PAYLOAD,2024-04-18 21:47:00,14.98324594,0.0003263,70.0002,3.6067,278.182,81.8969,-1.4466e-05,-2.66e-06,0.0,0 STARLINK-5275,1 55398U 23014H   24109.90764400 -.00000266  00000-0 -14466-4 0  9997,2 55398  70.0002   3.6067 0003263 278.1820  81.8969 14.98324594 68739,6950.21,96.107,574.342,569.807,0.0
55398.0,STARLINK-5275,PAYLOAD,2024-04-19 02:35:23,14.98336678,0.0002452,70.0025,3.1078,233.3752,126.7181,-3.6266e-05,-5.26e-06,0.0,0 STARLINK-5275,1 55398U 23014H   24110.10791526 -.00000526  00000-0 -36266-4 0  9991,2 55398  70.0025   3.1078 0002452 233.3752 126.7181 14.98336678 67827,6950.172,96.107,573.741,570.333,0.0
55398.0,STARLINK-5275,PAYLOAD,2024-04-19 21:49:00,14.98326194,0.00025,70.0016,1.0855,253.1572,106.9312,0.00028853,3.351e-05,0.0,0 STARLINK-5275,1 55398U 23014H   24110.90903376  .00003351  00000-0  28853-3 0  9996,2 55398  70.0016   1.0855 0002500 253.1572 106.9312 14.98326194 68886,6950.205,96.107,573.807,570.332,0.0
55398.0,STARLINK-5275,PAYLOAD,2024-04-20 02:37:23,14.98337956,0.0002652,70.0012,0.582,254.8822,105.2044,0.00037424,4.376e-05,0.0,0 STARLINK-5275,1 55398U 23014H   24111.10930307  .00004376  00000-0  37424-3 0  9995,2 55398  70.0012   0.5820 0002652 254.8822 105.2044 14.98337956 67973,6950.168,96.106,573.876,570.19,0.0
55398.0,STARLINK-5275,PAYLOAD,2024-04-20 20:14:56,14.98295858,0.0002448,70.002,358.7304,246.654,113.4361,-0.00048793,-5.905e-05,0.0,0 STARLINK-5275,1 55398U 23014H   24111.84370498 -.00005905  00000-0 -48793-3 0  9997,2 55398  70.0020 358.7304 0002448 246.6540 113.4361 14.98295858 68086,6950.298,96.109,573.865,570.462,0.0
55398.0,STARLINK-5275,PAYLOAD,2024-04-21 02:39:28,14.98294555,0.000251,70.0018,358.0562,244.9323,115.1575,-0.00047876,-5.795e-05,0.0,0 STARLINK-5275,1 55398U 23014H   24112.11075015 -.00005795  00000-0 -47876-3 0  9993,2 55398  70.0018 358.0562 0002510 244.9323 115.1575 14.98294555 69060,6950.303,96.109,573.912,570.423,0.0
55398.0,STARLINK-5275,PAYLOAD,2024-04-21 20:16:56,14.98314207,0.0002647,70.0023,356.2042,256.6215,103.4649,-0.00028166,-3.451e-05,0.0,0 STARLINK-5275,1 55398U 23014H   24112.84509973 -.00003451  00000-0 -28166-3 0  9996,2 55398  70.0023 356.2042 0002647 256.6215 103.4649 14.98314207 68237,6950.242,96.108,573.946,570.267,0.0
